ONEWEB-0393             
1 50473U 21132E   23278.51385964 -.00000017  00000+0 -77862-4 0  9994
2 50473  87.9255 201.7106 0001710  67.8634 292.2679 13.17648885 88304
ONEWEB-0394             
1 50474U 21132F   23278.46208574 -.00000021  00000+0 -84821-4 0  9998
2 50474  87.9286 171.5000 0001706  78.8104 281.3220 13.18684607 91684
ONEWEB-0395             
1 50475U 21132G   23278.56567512  .00016078  00000+0  45303-1 0  9996
2 50475  87.8974 216.8892 0001694  77.5432 282.5886 13.11336209 86530
ONEWEB-0396             
1 50476U 21132H   23278.45575927  .00000060  00000+0  12020-3 0  9990
2 50476  87.9286 171.4931 0001724  82.2351 277.8977 13.18688212 91721
ONEWEB-0397             
1 50477U 21132J   23278.24288826 -.00000273  00000+0 -72460-3 0  9999
2 50477  87.9284 171.5362 0001648  86.7649 273.3671 13.18688478 91673
ONEWEB-0398             
1 50478U 21132K   23278.53324018  .00007766  00000+0  21871-1 0  9996
2 50478  87.8976 216.8880 0001620  64.1974 295.9321 13.11376062 86425
ONEWEB-0399             
1 50479U 21132L   23278.36612503 -.00015873  00000+0 -44842-1 0  9990
2 50479  87.8976 216.9324 0002222  87.1278 273.0105 13.11506364 86394
ONEWEB-0400             
1 50480U 21132M   23278.44945290 -.00000632  00000+0 -16346-2 0  9999
2 50480  87.9211 171.5148 0001687  66.6877 293.4432 13.18691977 91690
